{
  "type": "FeatureCollection",
  "features": [
    {
      "type": "Feature",
      "properties": {
        "norad_id": 37280,
        "name": "COSMOS 2251 DEB",
        "group": "cosmos-2251-debris",
        "lat": 69.73042323445665,
        "lon": 113.18088012140572,
        "alt_km": 858.3549705565947,
        "timestamp": "2025-12-09T18:55:17.629280+00:00",
        "meta_object_name": "COSMOS 2251 DEB",
        "meta_object_id": "1993-036BHU",
        "meta_epoch": "2025-12-07T22:33:59.390208",
        "meta_mean_motion": 14.19261757,
        "meta_eccentricity": 0.01314572,
        "meta_inclination": 74.0315,
        "meta_ra_of_asc_node": 65.6486,
        "meta_arg_of_pericenter": 195.2525,
        "meta_mean_anomaly": 164.4641,
        "meta_ephemeris_type": 0,
        "meta_classification_type": "U",
        "meta_norad_cat_id": 37280,
        "meta_element_set_no": 999,
        "meta_rev_at_epoch": 57255,
        "meta_bstar": 0.0024447431,
        "meta_mean_motion_dot": 5.567e-05,
        "meta_mean_motion_ddot": 0,
        "tle_line1": "1 37280U 93036BHU 25341.94027072  .00005567  00000+0  24447-2 0  9992",
        "tle_line2": "2 37280  74.0315  65.6486 0131457 195.2525 164.4641 14.19261757572550"
      },
      "geometry": {
        "type": "Point",
        "coordinates": [
          113.18088012140572,
          69.73042323445665
        ]
      }
    },
    {
      "type": "Feature",
      "properties": {
        "norad_id": 37284,
        "name": "COSMOS 2251 DEB",
        "group": "cosmos-2251-debris",
        "lat": 30.327440181156362,
        "lon": -27.701590329888354,
        "alt_km": 960.6824651774596,
        "timestamp": "2025-12-09T18:55:17.629290+00:00",
        "meta_object_name": "COSMOS 2251 DEB",
        "meta_object_id": "1993-036BHY",
        "meta_epoch": "2025-12-05T19:06:47.225088",
        "meta_mean_motion": 14.12657303,
        "meta_eccentricity": 0.01604408,
        "meta_inclination": 74.0121,
        "meta_ra_of_asc_node": 169.0185,
        "meta_arg_of_pericenter": 322.3384,
        "meta_mean_anomaly": 52.3924,
        "meta_ephemeris_type": 0,
        "meta_classification_type": "U",
        "meta_norad_cat_id": 37284,
        "meta_element_set_no": 999,
        "meta_rev_at_epoch": 59077,
        "meta_bstar": 0.001984473,
        "meta_mean_motion_dot": 4.13e-05,
        "meta_mean_motion_ddot": 0,
        "tle_line1": "1 37284U 93036BHY 25339.79637992  .00004130  00000+0  19845-2 0  9995",
        "tle_line2": "2 37284  74.0121 169.0185 0160440 322.3384  52.3924 14.12657303590776"
      },
      "geometry": {
        "type": "Point",
        "coordinates": [
          -27.701590329888354,
          30.327440181156362
        ]
      }
    },
    {
      "type": "Feature",
      "properties": {
        "norad_id": 37292,
        "name": "COSMOS 2251 DEB",
        "group": "cosmos-2251-debris",
        "lat": 8.046529140687971,
        "lon": 57.186507035791465,
        "alt_km": 784.6335975092688,
        "timestamp": "2025-12-09T18:55:17.629300+00:00",
        "meta_object_name": "COSMOS 2251 DEB",
        "meta_object_id": "1993-036BJG",
        "meta_epoch": "2025-12-02T14:04:30.366912",
        "meta_mean_motion": 14.03226454,
        "meta_eccentricity": 0.02102512,
        "meta_inclination": 74.129,
        "meta_ra_of_asc_node": 67.3453,
        "meta_arg_of_pericenter": 73.1105,
        "meta_mean_anomaly": 289.2966,
        "meta_ephemeris_type": 0,
        "meta_classification_type": "U",
        "meta_norad_cat_id": 37292,
        "meta_element_set_no": 999,
        "meta_rev_at_epoch": 59706,
        "meta_bstar": 0.0022453288,
        "meta_mean_motion_dot": 4.236e-05,
        "meta_mean_motion_ddot": 0,
        "tle_line1": "1 37292U 93036BJG 25336.58646258  .00004236  00000+0  22453-2 0  9999",
        "tle_line2": "2 37292  74.1290  67.3453 0210251  73.1105 289.2966 14.03226454597064"
      },
      "geometry": {
        "type": "Point",
        "coordinates": [
          57.186507035791465,
          8.046529140687971
        ]
      }
    },
    {
      "type": "Feature",
      "properties": {
        "norad_id": 37295,
        "name": "COSMOS 2251 DEB",
        "group": "cosmos-2251-debris",
        "lat": -12.4591768090833,
        "lon": -76.31856395920961,
        "alt_km": 696.0263558314082,
        "timestamp": "2025-12-09T18:55:17.629310+00:00",
        "meta_object_name": "COSMOS 2251 DEB",
        "meta_object_id": "1993-036BJK",
        "meta_epoch": "2025-12-08T06:55:47.796960",
        "meta_mean_motion": 14.65195432,
        "meta_eccentricity": 0.0043741,
        "meta_inclination": 74.0075,
        "meta_ra_of_asc_node": 290.2038,
        "meta_arg_of_pericenter": 110.7992,
        "meta_mean_anomaly": 249.7871,
        "meta_ephemeris_type": 0,
        "meta_classification_type": "U",
        "meta_norad_cat_id": 37295,
        "meta_element_set_no": 999,
        "meta_rev_at_epoch": 82239,
        "meta_bstar": 0.00091244474,
        "meta_mean_motion_dot": 4.952e-05,
        "meta_mean_motion_ddot": 0,
        "tle_line1": "1 37295U 93036BJK 25342.28874765  .00004952  00000+0  91244-3 0  9992",
        "tle_line2": "2 37295  74.0075 290.2038 0043741 110.7992 249.7871 14.65195432822395"
      },
      "geometry": {
        "type": "Point",
        "coordinates": [
          -76.31856395920961,
          -12.4591768090833
        ]
      }
    },
    {
      "type": "Feature",
      "properties": {
        "norad_id": 37305,
        "name": "COSMOS 2251 DEB",
        "group": "cosmos-2251-debris",
        "lat": 70.09842191700108,
        "lon": -10.941680660001898,
        "alt_km": 800.1639687626694,
        "timestamp": "2025-12-09T18:55:17.629320+00:00",
        "meta_object_name": "COSMOS 2251 DEB",
        "meta_object_id": "1993-036BJV",
        "meta_epoch": "2025-12-09T03:30:34.596000",
        "meta_mean_motion": 14.36113297,
        "meta_eccentricity": 0.00503049,
        "meta_inclination": 73.8703,
        "meta_ra_of_asc_node": 297.1813,
        "meta_arg_of_pericenter": 258.1201,
        "meta_mean_anomaly": 101.4307,
        "meta_ephemeris_type": 0,
        "meta_classification_type": "U",
        "meta_norad_cat_id": 37305,
        "meta_element_set_no": 999,
        "meta_rev_at_epoch": 66815,
        "meta_bstar": 0.00098361717,
        "meta_mean_motion_dot": 2.879e-05,
        "meta_mean_motion_ddot": 0,
        "tle_line1": "1 37305U 93036BJV 25343.14623375  .00002879  00000+0  98362-3 0  9993",
        "tle_line2": "2 37305  73.8703 297.1813 0050304 258.1201 101.4307 14.36113297668159"
      },
      "geometry": {
        "type": "Point",
        "coordinates": [
          -10.941680660001898,
          70.09842191700108
        ]
      }
    },
    {
      "type": "Feature",
      "properties": {
        "norad_id": 37312,
        "name": "COSMOS 2251 DEB",
        "group": "cosmos-2251-debris",
        "lat": 14.259299802555134,
        "lon": -146.13697679207655,
        "alt_km": 732.8174160773324,
        "timestamp": "2025-12-09T18:55:17.629330+00:00",
        "meta_object_name": "COSMOS 2251 DEB",
        "meta_object_id": "1993-036BKC",
        "meta_epoch": "2025-12-09T00:35:23.995392",
        "meta_mean_motion": 14.46107555,
        "meta_eccentricity": 0.00182852,
        "meta_inclination": 74.0311,
        "meta_ra_of_asc_node": 211.115,
        "meta_arg_of_pericenter": 314.7028,
        "meta_mean_anomaly": 45.264,
        "meta_ephemeris_type": 0,
        "meta_classification_type": "U",
        "meta_norad_cat_id": 37312,
        "meta_element_set_no": 999,
        "meta_rev_at_epoch": 86110,
        "meta_bstar": 0.00057614872,
        "meta_mean_motion_dot": 2.035e-05,
        "meta_mean_motion_ddot": 0,
        "tle_line1": "1 37312U 93036BKC 25343.02458328  .00002035  00000+0  57615-3 0  9992",
        "tle_line2": "2 37312  74.0311 211.1150 0018285 314.7028  45.2640 14.46107555861109"
      },
      "geometry": {
        "type": "Point",
        "coordinates": [
          -146.13697679207655,
          14.259299802555134
        ]
      }
    },
    {
      "type": "Feature",
      "properties": {
        "norad_id": 37316,
        "name": "COSMOS 2251 DEB",
        "group": "cosmos-2251-debris",
        "lat": 56.84860031209235,
        "lon": 53.04638826551875,
        "alt_km": 562.2230431468379,
        "timestamp": "2025-12-09T18:55:17.629340+00:00",
        "meta_object_name": "COSMOS 2251 DEB",
        "meta_object_id": "1993-036BKG",
        "meta_epoch": "2025-12-09T02:35:02.214528",
        "meta_mean_motion": 14.942513,
        "meta_eccentricity": 0.00294151,
        "meta_inclination": 74.0196,
        "meta_ra_of_asc_node": 28.395,
        "meta_arg_of_pericenter": 98.2306,
        "meta_mean_anomaly": 262.2216,
        "meta_ephemeris_type": 0,
        "meta_classification_type": "U",
        "meta_norad_cat_id": 37316,
        "meta_element_set_no": 999,
        "meta_rev_at_epoch": 86089,
        "meta_bstar": 0.0022767675,
        "meta_mean_motion_dot": 0.0002469,
        "meta_mean_motion_ddot": 0,
        "tle_line1": "1 37316U 93036BKG 25343.10766452  .00024690  00000+0  22768-2 0  9996",
        "tle_line2": "2 37316  74.0196  28.3950 0029415  98.2306 262.2216 14.94251300860896"
      },
      "geometry": {
        "type": "Point",
        "coordinates": [
          53.04638826551875,
          56.84860031209235
        ]
      }
    }
  ]
}